{"fetched_at":"2026-07-17T06:38:29.983Z","source":"https://celestrak.org/NORAD/elements/gp.php?NAME=PLEIADES&FORMAT=JSON","constellation":"pleiades-neo","records":[{"OBJECT_NAME":"PLEIADES NEO 3","OBJECT_ID":"2021-034A","EPOCH":"2026-07-16T19:58:36.714432","CLASSIFICATION_TYPE":"U","MEAN_MOTION":14.81669481,"ECCENTRICITY":0.0001357,"INCLINATION":97.8943,"RA_OF_ASC_NODE":272.1723,"ARG_OF_PERICENTER":95.2536,"MEAN_ANOMALY":264.8832,"EPHEMERIS_TYPE":0,"NORAD_CAT_ID":48268,"ELEMENT_SET_NO":999,"REV_AT_EPOCH":28204,"BSTAR":0.000071086,"MEAN_MOTION_DOT":0.00000507,"MEAN_MOTION_DDOT":0},{"OBJECT_NAME":"PLEIADES NEO 4","OBJECT_ID":"2021-073E","EPOCH":"2026-07-16T20:47:13.282080","CLASSIFICATION_TYPE":"U","MEAN_MOTION":14.81673123,"ECCENTRICITY":0.0001344,"INCLINATION":97.8942,"RA_OF_ASC_NODE":272.2016,"ARG_OF_PERICENTER":91.5893,"MEAN_ANOMALY":268.5474,"EPHEMERIS_TYPE":0,"NORAD_CAT_ID":49070,"ELEMENT_SET_NO":999,"REV_AT_EPOCH":26576,"BSTAR":0.000018721,"MEAN_MOTION_DOT":9.5e-7,"MEAN_MOTION_DDOT":0}]}
